[{"OBJECT_NAME":"GAOFEN-3 02","OBJECT_ID":"2021-109A","EPOCH":"2026-03-09T23:26:55.915584","MEAN_MOTION":14.42215794,"ECCENTRICITY":0.00015915,"INCLINATION":98.4134,"RA_OF_ASC_NODE":78.4682,"ARG_OF_PERICENTER":307.7744,"MEAN_ANOMALY":52.3302,"EPHEMERIS_TYPE":0,"CLASSIFICATION_TYPE":"U","NORAD_CAT_ID":49495,"ELEMENT_SET_NO":999,"REV_AT_EPOCH":22601,"BSTAR":5.592981e-6,"MEAN_MOTION_DOT":-2.5e-7,"MEAN_MOTION_DDOT":0},{"OBJECT_NAME":"COSMOS 2251 DEB","OBJECT_ID":"1993-036VH","EPOCH":"2026-03-08T19:46:04.870272","MEAN_MOTION":14.50796105,"ECCENTRICITY":0.005845,"INCLINATION":74.0421,"RA_OF_ASC_NODE":20.8496,"ARG_OF_PERICENTER":33.964,"MEAN_ANOMALY":326.524,"EPHEMERIS_TYPE":0,"CLASSIFICATION_TYPE":"U","NORAD_CAT_ID":34571,"ELEMENT_SET_NO":999,"REV_AT_EPOCH":88541,"BSTAR":0.0038898394,"MEAN_MOTION_DOT":0.00015669,"MEAN_MOTION_DDOT":0}]
